{
    "links": {
        "self": "http://www.neowsapp.com/rest/v1/neo/3610762?api_key=iIulBulltgU6a56xZRHN4H3l9WmuAYTsLGpBGhQ2"
    },
    "id": "3610762",
    "neo_reference_id": "3610762",
    "name": "(2012 TF146)",
    "designation": "2012 TF146",
    "nasa_jpl_url": "http://ssd.jpl.nasa.gov/sbdb.cgi?sstr=3610762",
    "absolute_magnitude_h": 25.6,
    "estimated_diameter": {
        "kilometers": {
            "estimated_diameter_min": 0.0201629919,
            "estimated_diameter_max": 0.0450858206
        },
        "meters": {
            "estimated_diameter_min": 20.1629919443,
            "estimated_diameter_max": 45.0858206172
        },
        "miles": {
            "estimated_diameter_min": 0.0125286985,
            "estimated_diameter_max": 0.0280150214
        },
        "feet": {
            "estimated_diameter_min": 66.1515504905,
            "estimated_diameter_max": 147.9193637137
        }
    },
    "is_potentially_hazardous_asteroid": false,
    "close_approach_data": [
        {
            "close_approach_date": "2012-10-24",
            "close_approach_date_full": "2012-Oct-24 02:59",
            "epoch_date_close_approach": 1351047540000,
            "relative_velocity": {
                "kilometers_per_second": "5.9399324723",
                "kilometers_per_hour": "21383.7569004458",
                "miles_per_hour": "13287.0349473909"
            },
            "miss_distance": {
                "astronomical": "0.0747283461",
                "lunar": "29.0693266329",
                "kilometers": "11179201.405182807",
                "miles": "6946433.6427724566"
            },
            "orbiting_body": "Earth"
        }
    ],
    "orbital_data": {
        "orbit_id": "6",
        "orbit_determination_date": "2017-04-06 08:48:35",
        "first_observation_date": "2012-10-11",
        "last_observation_date": "2012-11-18",
        "data_arc_in_days": 38,
        "observations_used": 26,
        "orbit_uncertainty": "8",
        "minimum_orbit_intersection": ".0744041",
        "jupiter_tisserand_invariant": "3.545",
        "epoch_osculation": "2456219.5",
        "eccentricity": ".5005254782076212",
        "semi_major_axis": "2.133038259056571",
        "inclination": "4.323781360121647",
        "ascending_node_longitude": "20.52973070399431",
        "orbital_period": "1137.879818126575",
        "perihelion_distance": "1.065398264407129",
        "perihelion_argument": "17.06335334092929",
        "aphelion_distance": "3.200678253706013",
        "perihelion_time": "2456230.303209775235",
        "mean_anomaly": "356.5821034373491",
        "mean_motion": ".3163778759981087",
        "equinox": "J2000",
        "orbit_class": {
            "orbit_class_type": "AMO",
            "orbit_class_description": "Near-Earth asteroid orbits similar to that of 1221 Amor",
            "orbit_class_range": "1.017 AU < q (perihelion) < 1.3 AU"
        }
    },
    "is_sentry_object": false
}